O3B FM4                 
1 39189U 13031B   18310.52840631 -.00000027  00000-0  00000-0 0  9990
2 39189   0.0552   8.6296 0002631 209.5195 141.8373  5.00089780 98087
O3B FM2                 
1 39190U 13031C   18308.89407101 -.00000026  00000-0  00000-0 0  9999
2 39190   0.0607   9.3830 0007512 237.4731 113.0697  5.00115758 97962
O3B PFM                 
1 39191U 13031D   18310.32685766 -.00000027  00000-0  00000-0 0  9997
2 39191   0.0378  18.6295 0005612 255.4662  85.8453  5.00112740 97962
O3B FM3                 
1 40079U 14038A   18309.82853725 -.00000026  00000-0  00000-0 0  9996
2 40079   0.0487  13.4770 0000903 148.4113 198.1199  5.00116084 74113
O3B FM7                 
1 40080U 14038B   18309.37862207 -.00000026  00000-0  00000-0 0  9993
2 40080   0.0496  11.2366 0002608 212.5406 136.2071  5.00116323 78880
O3B FM6                 
1 40081U 14038C   18310.19414077 -.00000027  00000-0  00000-0 0  9995
2 40081   0.0491  12.4381 0002578 212.9053 134.6407  5.00117186 78900
O3B FM8                 
1 40082U 14038D   18310.04476593 -.00000027  00000-0  00000-0 0  9991
2 40082   0.0513   9.7414 0002606 215.3063 134.9363  5.00115006 79007
O3B FM10                
1 40348U 14083A   18310.07796927 -.00000027  00000-0  00000-0 0  9995
2 40348   0.0401  11.7684 0002558 212.4101 135.8062  5.00114236 70974
O3B FM11                
1 40349U 14083B   18309.49469747 -.00000026  00000-0  00000-0 0  9996
2 40349   0.0413  18.2734 0003238 199.6527 142.0561  5.00115809 70937
O3B FM12                
1 40350U 14083C   18309.36196723 -.00000026  00000-0  00000-0 0  9995
2 40350   0.0419  16.9710 0002831 208.7060 134.3048  5.00115551 70934
O3B FM9                 
1 40351U 14083D   18309.74438970 -.00000026  00000-0  00000-0 0  9991
2 40351   0.0413  19.9739 0002610 204.4186 135.5916  5.00114688 70971
DIAMOND RED             
1 42783U 17036U   18310.38627686  .00001037  00000-0  48763-4 0  9993
2 42783  97.3844   7.6054 0010854 302.1622  57.8560 15.21746053 76139
DIAMOND GREEN           
1 42785U 17036W   18310.45079981  .00001035  00000-0  48683-4 0  9991
2 42785  97.3846   7.6861 0010756 302.6168  57.4029 15.21744962 76133
DIAMOND BLUE            
1 42786U 17036X   18310.38413785  .00001053  00000-0  49475-4 0  9998
2 42786  97.3846   7.6203 0010597 303.2642  56.7578 15.21748049 76121
LEO VANTAGE 1           
1 43113U 18004C   18310.53096346 -.00000056  00000-0 -14053-4 0  9994
2 43113  99.4644   9.6565 0005866 145.5827 214.5700 13.69846849 41538
TINTIN A                
1 43216U 18020B   18310.52792335  .00001003  00000-0  49791-4 0  9994
2 43216  97.4546 316.1747 0016024  99.4584 260.8463 15.19893215 39010
TINTIN B                
1 43217U 18020C   18310.52659157  .00001016  00000-0  50347-4 0  9992
2 43217  97.4617 316.4205 0014933 100.6951 259.5966 15.19938660 39019
O3B FM15                
1 43231U 18024A   18310.41133163 -.00000027  00000-0  00000-0 0  9993
2 43231   0.0391   6.8713 0002743 219.0401 134.0711  5.00115471 12101
O3B FM16                
1 43232U 18024B   18310.26117861 -.00000027  00000-0  00000-0 0  9994
2 43232   0.0373   1.1353 0003099 228.2933 130.5495  5.00116093 12108
O3B FM14                
1 43233U 18024C   18310.31053552 -.00000027  00000-0  00000-0 0  9997
2 43233   0.0375 358.6173 0002945 233.7549 127.6061  5.00116994 12100
O3B FM13                
1 43234U 18024D   18310.32686427 -.00000027  00000-0  00000-0 0  9992
2 43234   0.0365  40.7685 0004352 215.6029 103.5853  5.00112756 12095
